{"type": "FeatureCollection", "features": [ {"type": "Feature", "properties": {"norad_id": 66635, "name": "STARLINK-35955", "group": "last-30-days", "lat": 12.619038949991738, "lon": 140.16158389395147, "alt_km": 445.8613771842347, "timestamp": "2025-12-24T16:52:40.177356+00:00", "meta": {"OBJECT_NAME": "STARLINK-35955", "OBJECT_ID": "2025-271U", "EPOCH": "2025-12-24T02:47:17.686752", "MEAN_MOTION": 15.39650524, "ECCENTRICITY": 0.00012272, "INCLINATION": 53.1628, "RA_OF_ASC_NODE": 133.2672, "ARG_OF_PERICENTER": 85.9627, "MEAN_ANOMALY": 274.1518, "EPHEMERIS_TYPE": 0, "CLASSIFICATION_TYPE": "U", "NORAD_CAT_ID": 66635, "ELEMENT_SET_NO": 999, "REV_AT_EPOCH": 596, "BSTAR": 0.00097980655, "MEAN_MOTION_DOT": 0.00039032, "MEAN_MOTION_DDOT": 0}, "tle": {"line1": "1 66635U 25271U   25358.11617693  .00039032  00000+0  97981-3 0  9993", "line2": "2 66635  53.1628 133.2672 0001227  85.9627 274.1518 15.39650524  5964"}}, "geometry": {"type": "Point", "coordinates": [140.16158389395147, 12.619038949991738]}}, {"type": "Feature", "properties": {"norad_id": 66636, "name": "STARLINK-35968", "group": "last-30-days", "lat": -7.832007755187287, "lon": 124.62667814944328, "alt_km": 448.7620910953474, "timestamp": "2025-12-24T16:52:40.177367+00:00", "meta": {"OBJECT_NAME": "STARLINK-35968", "OBJECT_ID": "2025-271V", "EPOCH": "2025-12-23T20:40:04.403712", "MEAN_MOTION": 15.39659771, "ECCENTRICITY": 0.00010839, "INCLINATION": 53.1598, "RA_OF_ASC_NODE": 134.5153, "ARG_OF_PERICENTER": 75.8209, "MEAN_ANOMALY": 284.2917, "EPHEMERIS_TYPE": 0, "CLASSIFICATION_TYPE": "U", "NORAD_CAT_ID": 66636, "ELEMENT_SET_NO": 999, "REV_AT_EPOCH": 592, "BSTAR": 0.00094849799, "MEAN_MOTION_DOT": 0.00037777, "MEAN_MOTION_DDOT": 0}, "tle": {"line1": "1 66636U 25271V   25357.86116208  .00037777  00000+0  94850-3 0  9997", "line2": "2 66636  53.1598 134.5153 0001083  75.8209 284.2917 15.39659771  5927"}}, "geometry": {"type": "Point", "coordinates": [124.62667814944328, -7.832007755187287]}}, {"type": "Feature", "properties": {"norad_id": 66637, "name": "STARLINK-35953", "group": "last-30-days", "lat": 32.050482374318854, "lon": 158.43950008427018, "alt_km": 442.0937002996079, "timestamp": "2025-12-24T16:52:40.177380+00:00", "meta": {"OBJECT_NAME": "STARLINK-35953", "OBJECT_ID": "2025-271W", "EPOCH": "2025-12-24T02:40:36.943680", "MEAN_MOTION": 15.3962321, "ECCENTRICITY": 0.00021216, "INCLINATION": 53.1612, "RA_OF_ASC_NODE": 133.2348, "ARG_OF_PERICENTER": 85.8324, "MEAN_ANOMALY": 274.2924, "EPHEMERIS_TYPE": 0, "CLASSIFICATION_TYPE": "U", "NORAD_CAT_ID": 66637, "ELEMENT_SET_NO": 999, "REV_AT_EPOCH": 596, "BSTAR": 0.001104369, "MEAN_MOTION_DOT": 0.00044035, "MEAN_MOTION_DDOT": 0}, "tle": {"line1": "1 66637U 25271W   25358.11153870  .00044035  00000+0  11044-2 0  9991", "line2": "2 66637  53.1612 133.2348 0002121  85.8324 274.2924 15.39623210  5960"}}, "geometry": {"type": "Point", "coordinates": [158.43950008427018, 32.050482374318854]}}, {"type": "Feature", "properties": {"norad_id": 66638, "name": "STARLINK-35972", "group": "last-30-days", "lat": 53.0236995401597, "lon": -134.3367202343336, "alt_km": 438.24991599586247, "timestamp": "2025-12-24T16:52:40.177390+00:00", "meta": {"OBJECT_NAME": "STARLINK-35972", "OBJECT_ID": "2025-271X", "EPOCH": "2025-12-24T02:27:14.479488", "MEAN_MOTION": 15.39644446, "ECCENTRICITY": 0.00024666, "INCLINATION": 53.162, "RA_OF_ASC_NODE": 133.1754, "ARG_OF_PERICENTER": 80.0074, "MEAN_ANOMALY": 280.1209, "EPHEMERIS_TYPE": 0, "CLASSIFICATION_TYPE": "U", "NORAD_CAT_ID": 66638, "ELEMENT_SET_NO": 999, "REV_AT_EPOCH": 596, "BSTAR": 0.00095987528, "MEAN_MOTION_DOT": 0.0003822, "MEAN_MOTION_DDOT": 0}, "tle": {"line1": "1 66638U 25271X   25358.10225092  .00038220  00000+0  95988-3 0  9996", "line2": "2 66638  53.1620 133.1754 0002466  80.0074 280.1209 15.39644446  5967"}}, "geometry": {"type": "Point", "coordinates": [-134.3367202343336, 53.0236995401597]}}, {"type": "Feature", "properties": {"norad_id": 66639, "name": "STARLINK-35908", "group": "last-30-days", "lat": 44.41760438731312, "lon": -96.97829159417223, "alt_km": 440.061481935998, "timestamp": "2025-12-24T16:52:40.177400+00:00", "meta": {"OBJECT_NAME": "STARLINK-35908", "OBJECT_ID": "2025-271Y", "EPOCH": "2025-12-24T02:20:33.047808", "MEAN_MOTION": 15.39628481, "ECCENTRICITY": 0.00018805, "INCLINATION": 53.1622, "RA_OF_ASC_NODE": 133.1471, "ARG_OF_PERICENTER": 82.1852, "MEAN_ANOMALY": 277.9366, "EPHEMERIS_TYPE": 0, "CLASSIFICATION_TYPE": "U", "NORAD_CAT_ID": 66639, "ELEMENT_SET_NO": 999, "REV_AT_EPOCH": 596, "BSTAR": 0.0013188877, "MEAN_MOTION_DOT": 0.00052736, "MEAN_MOTION_DDOT": 0}, "tle": {"line1": "1 66639U 25271Y   25358.09760472  .00052736  00000+0  13189-2 0  9991", "line2": "2 66639  53.1622 133.1471 0001880  82.1852 277.9366 15.39628481  5961"}}, "geometry": {"type": "Point", "coordinates": [-96.97829159417223, 44.41760438731312]}}, {"type": "Feature", "properties": {"norad_id": 66640, "name": "STARLINK-35921", "group": "last-30-days", "lat": 47.623564394736206, "lon": -174.34983624516954, "alt_km": 439.32793706248503, "timestamp": "2025-12-24T16:52:40.177411+00:00", "meta": {"OBJECT_NAME": "STARLINK-35921", "OBJECT_ID": "2025-271Z", "EPOCH": "2025-12-24T02:33:55.575072", "MEAN_MOTION": 15.39633843, "ECCENTRICITY": 0.00018409, "INCLINATION": 53.161, "RA_OF_ASC_NODE": 133.2065, "ARG_OF_PERICENTER": 70.5998, "MEAN_ANOMALY": 289.5206, "EPHEMERIS_TYPE": 0, "CLASSIFICATION_TYPE": "U", "NORAD_CAT_ID": 66640, "ELEMENT_SET_NO": 999, "REV_AT_EPOCH": 596, "BSTAR": 0.0016907304, "MEAN_MOTION_DOT": 0.00067864, "MEAN_MOTION_DDOT": 0}, "tle": {"line1": "1 66640U 25271Z   25358.10689323  .00067864  00000+0  16907-2 0  9999", "line2": "2 66640  53.1610 133.2065 0001840  70.5998 289.5206 15.39633843  5968"}}, "geometry": {"type": "Point", "coordinates": [-174.34983624516954, 47.623564394736206]}}, {"type": "Feature", "properties": {"norad_id": 66641, "name": "STARLINK-35923", "group": "last-30-days", "lat": -42.0105602591672, "lon": -7.466425034521042, "alt_km": 434.16930228823367, "timestamp": "2025-12-24T16:52:40.177421+00:00", "meta": {"OBJECT_NAME": "STARLINK-35923", "OBJECT_ID": "2025-271AA", "EPOCH": "2025-12-24T01:53:27.761856", "MEAN_MOTION": 15.45595908, "ECCENTRICITY": 5.454e-05, "INCLINATION": 53.1609, "RA_OF_ASC_NODE": 133.0279, "ARG_OF_PERICENTER": 71.1975, "MEAN_ANOMALY": 288.9092, "EPHEMERIS_TYPE": 0, "CLASSIFICATION_TYPE": "U", "NORAD_CAT_ID": 66641, "ELEMENT_SET_NO": 999, "REV_AT_EPOCH": 596, "BSTAR": 0.0015184338, "MEAN_MOTION_DOT": 0.00074519, "MEAN_MOTION_DDOT": 0}, "tle": {"line1": "1 66641U 25271AA  25358.07879354  .00074519  00000+0  15184-2 0  9992", "line2": "2 66641  53.1609 133.0279 0000545  71.1975 288.9092 15.45595908  5967"}}, "geometry": {"type": "Point", "coordinates": [-7.466425034521042, -42.0105602591672]}}, {"type": "Feature", "properties": {"norad_id": 66642, "name": "STARLINK-35926", "group": "last-30-days", "lat": -32.36597517849944, "lon": -21.54293295031027, "alt_km": 451.2214538957587, "timestamp": "2025-12-24T16:52:40.177432+00:00", "meta": {"OBJECT_NAME": "STARLINK-35926", "OBJECT_ID": "2025-271AB", "EPOCH": "2025-12-24T08:00:03.000384", "MEAN_MOTION": 15.42005642, "ECCENTRICITY": 8.938e-05, "INCLINATION": 53.1602, "RA_OF_ASC_NODE": 131.834, "ARG_OF_PERICENTER": 112.6381, "MEAN_ANOMALY": 216.3867, "EPHEMERIS_TYPE": 0, "CLASSIFICATION_TYPE": "U", "NORAD_CAT_ID": 66642, "ELEMENT_SET_NO": 999, "REV_AT_EPOCH": 587, "BSTAR": -0.074013299, "MEAN_MOTION_DOT": -0.02845594, "MEAN_MOTION_DDOT": 0}, "tle": {"line1": "1 66642U 25271AB  25358.33336806 -.02845594  00000+0 -74013-1 0  9990", "line2": "2 66642  53.1602 131.8340 0000893 112.6381 216.3867 15.42005642  5877"}}, "geometry": {"type": "Point", "coordinates": [-21.54293295031027, -32.36597517849944]}}, {"type": "Feature", "properties": {"norad_id": 66643, "name": "STARLINK-35918", "group": "last-30-days", "lat": 27.556522110423895, "lon": -72.78849680689096, "alt_km": 443.4544054419457, "timestamp": "2025-12-24T16:52:40.177443+00:00", "meta": {"OBJECT_NAME": "STARLINK-35918", "OBJECT_ID": "2025-271AC", "EPOCH": "2025-12-24T08:00:03.000384", "MEAN_MOTION": 15.39574152, "ECCENTRICITY": 0.00011591, "INCLINATION": 53.1601, "RA_OF_ASC_NODE": 131.985, "ARG_OF_PERICENTER": 93.7066, "MEAN_ANOMALY": 159.6722, "EPHEMERIS_TYPE": 0, "CLASSIFICATION_TYPE": "U", "NORAD_CAT_ID": 66643, "ELEMENT_SET_NO": 999, "REV_AT_EPOCH": 610, "BSTAR": 0.0017499226, "MEAN_MOTION_DOT": 0.00070136, "MEAN_MOTION_DDOT": 0}, "tle": {"line1": "1 66643U 25271AC  25358.33336806  .00070136  00000+0  17499-2 0  9995", "line2": "2 66643  53.1601 131.9850 0001159  93.7066 159.6722 15.39574152  6108"}}, "geometry": {"type": "Point", "coordinates": [-72.78849680689096, 27.556522110423895]}}, {"type": "Feature", "properties": {"norad_id": 66644, "name": "STARLINK-35938", "group": "last-30-days", "lat": -31.070942824049663, "lon": -23.053317764795366, "alt_km": 451.3478725659279, "timestamp": "2025-12-24T16:52:40.177457+00:00", "meta": {"OBJECT_NAME": "STARLINK-35938", "OBJECT_ID": "2025-271AD", "EPOCH": "2025-12-24T08:00:03.000384", "MEAN_MOTION": 15.4206309, "ECCENTRICITY": 0.00010493, "INCLINATION": 53.1602, "RA_OF_ASC_NODE": 131.8381, "ARG_OF_PERICENTER": 122.6812, "MEAN_ANOMALY": 204.4839, "EPHEMERIS_TYPE": 0, "CLASSIFICATION_TYPE": "U", "NORAD_CAT_ID": 66644, "ELEMENT_SET_NO": 999, "REV_AT_EPOCH": 610, "BSTAR": -0.076116093, "MEAN_MOTION_DOT": -0.02922262, "MEAN_MOTION_DDOT": 0}, "tle": {"line1": "1 66644U 25271AD  25358.33336806 -.02922262  00000+0 -76116-1 0  9996", "line2": "2 66644  53.1602 131.8381 0001049 122.6812 204.4839 15.42063090  6103"}}, "geometry": {"type": "Point", "coordinates": [-23.053317764795366, -31.070942824049663]}}]}